[{"OBJECT_NAME":"STARLINK-4691","OBJECT_ID":"2022-104A","EPOCH":"2026-03-09T18:30:40.008960","MEAN_MOTION":15.08839717,"ECCENTRICITY":0.00015932,"INCLINATION":53.2167,"RA_OF_ASC_NODE":244.0095,"ARG_OF_PERICENTER":60.6191,"MEAN_ANOMALY":299.496,"EPHEMERIS_TYPE":0,"CLASSIFICATION_TYPE":"U","NORAD_CAT_ID":53588,"ELEMENT_SET_NO":999,"REV_AT_EPOCH":19610,"BSTAR":0.00010606321,"MEAN_MOTION_DOT":1.4e-5,"MEAN_MOTION_DDOT":0},{"OBJECT_NAME":"UNISAT-5","OBJECT_ID":"2013-066F","EPOCH":"2026-03-09T22:02:55.134816","MEAN_MOTION":15.04155626,"ECCENTRICITY":0.00317175,"INCLINATION":97.6976,"RA_OF_ASC_NODE":39.5171,"ARG_OF_PERICENTER":68.1555,"MEAN_ANOMALY":292.3039,"EPHEMERIS_TYPE":0,"CLASSIFICATION_TYPE":"U","NORAD_CAT_ID":39421,"ELEMENT_SET_NO":999,"REV_AT_EPOCH":66774,"BSTAR":0.0004680489,"MEAN_MOTION_DOT":6.504e-5,"MEAN_MOTION_DDOT":0}]
